{
  "type": "FeatureCollection",
  "features": [
    {
      "type": "Feature",
      "properties": {
        "norad_id": 66711,
        "name": "FLOCK 4H-8",
        "group": "last-30-days",
        "lat": -57.997772533841584,
        "lon": 83.92489896991692,
        "alt_km": 519.4585858341989,
        "timestamp": "2025-12-26T07:29:17.192523+00:00",
        "meta_object_name": "FLOCK 4H-8",
        "meta_object_id": "2025-276AX",
        "meta_epoch": "2025-12-25T22:15:05.657184",
        "meta_mean_motion": 15.1752356,
        "meta_eccentricity": 0.0002345,
        "meta_inclination": 97.4425,
        "meta_ra_of_asc_node": 71.4723,
        "meta_arg_of_pericenter": 250.4349,
        "meta_mean_anomaly": 109.6631,
        "meta_ephemeris_type": 0,
        "meta_classification_type": "U",
        "meta_norad_cat_id": 66711,
        "meta_element_set_no": 999,
        "meta_rev_at_epoch": 412,
        "meta_bstar": 0.00034606497,
        "meta_mean_motion_dot": 6.876e-05,
        "meta_mean_motion_ddot": 0,
        "tle_line1": "1 66711U 25276AX  25359.92714881  .00006876  00000+0  34606-3 0  9995",
        "tle_line2": "2 66711  97.4425  71.4723 0002345 250.4349 109.6631 15.17523560  4127"
      },
      "geometry": {
        "type": "Point",
        "coordinates": [
          83.92489896991692,
          -57.997772533841584
        ]
      }
    },
    {
      "type": "Feature",
      "properties": {
        "norad_id": 66712,
        "name": "FLOCK 4H-9",
        "group": "last-30-days",
        "lat": -12.952041272676004,
        "lon": 73.59017293681768,
        "alt_km": 518.2741059687796,
        "timestamp": "2025-12-26T07:29:17.192537+00:00",
        "meta_object_name": "FLOCK 4H-9",
        "meta_object_id": "2025-276AY",
        "meta_epoch": "2025-12-25T22:03:11.051424",
        "meta_mean_motion": 15.17955018,
        "meta_eccentricity": 0.00029077,
        "meta_inclination": 97.4417,
        "meta_ra_of_asc_node": 71.481,
        "meta_arg_of_pericenter": 202.2283,
        "meta_mean_anomaly": 157.8825,
        "meta_ephemeris_type": 0,
        "meta_classification_type": "U",
        "meta_norad_cat_id": 66712,
        "meta_element_set_no": 999,
        "meta_rev_at_epoch": 412,
        "meta_bstar": 0.00032947606,
        "meta_mean_motion_dot": 6.625e-05,
        "meta_mean_motion_ddot": 0,
        "tle_line1": "1 66712U 25276AY  25359.91887791  .00006625  00000+0  32948-3 0  9995",
        "tle_line2": "2 66712  97.4417  71.4810 0002907 202.2283 157.8825 15.17955018  4129"
      },
      "geometry": {
        "type": "Point",
        "coordinates": [
          73.59017293681768,
          -12.952041272676004
        ]
      }
    },
    {
      "type": "Feature",
      "properties": {
        "norad_id": 66713,
        "name": "FLOCK 4H-10",
        "group": "last-30-days",
        "lat": -76.5793049754498,
        "lon": 105.02785288396706,
        "alt_km": 519.5360821480499,
        "timestamp": "2025-12-26T07:29:17.192547+00:00",
        "meta_object_name": "FLOCK 4H-10",
        "meta_object_id": "2025-276AZ",
        "meta_epoch": "2025-12-25T11:15:33.486912",
        "meta_mean_motion": 15.17312979,
        "meta_eccentricity": 0.00034593,
        "meta_inclination": 97.4392,
        "meta_ra_of_asc_node": 70.9982,
        "meta_arg_of_pericenter": 240.4175,
        "meta_mean_anomaly": 119.6714,
        "meta_ephemeris_type": 0,
        "meta_classification_type": "U",
        "meta_norad_cat_id": 66713,
        "meta_element_set_no": 999,
        "meta_rev_at_epoch": 405,
        "meta_bstar": 0.00051282126,
        "meta_mean_motion_dot": 0.00010165,
        "meta_mean_motion_ddot": 0,
        "tle_line1": "1 66713U 25276AZ  25359.46913758  .00010165  00000+0  51282-3 0  9995",
        "tle_line2": "2 66713  97.4392  70.9982 0003459 240.4175 119.6714 15.17312979  4051"
      },
      "geometry": {
        "type": "Point",
        "coordinates": [
          105.02785288396706,
          -76.5793049754498
        ]
      }
    },
    {
      "type": "Feature",
      "properties": {
        "norad_id": 66714,
        "name": "FLOCK 4H-11",
        "group": "last-30-days",
        "lat": -43.20467594832145,
        "lon": 78.90330199794047,
        "alt_km": 518.2523529385007,
        "timestamp": "2025-12-26T07:29:17.192556+00:00",
        "meta_object_name": "FLOCK 4H-11",
        "meta_object_id": "2025-276BA",
        "meta_epoch": "2025-12-25T17:26:25.942560",
        "meta_mean_motion": 15.17858774,
        "meta_eccentricity": 0.00020332,
        "meta_inclination": 97.4409,
        "meta_ra_of_asc_node": 71.2771,
        "meta_arg_of_pericenter": 259.8682,
        "meta_mean_anomaly": 100.2323,
        "meta_ephemeris_type": 0,
        "meta_classification_type": "U",
        "meta_norad_cat_id": 66714,
        "meta_element_set_no": 999,
        "meta_rev_at_epoch": 409,
        "meta_bstar": 0.00061243639,
        "meta_mean_motion_dot": 0.00012347,
        "meta_mean_motion_ddot": 0,
        "tle_line1": "1 66714U 25276BA  25359.72668915  .00012347  00000+0  61244-3 0  9990",
        "tle_line2": "2 66714  97.4409  71.2771 0002033 259.8682 100.2323 15.17858774  4099"
      },
      "geometry": {
        "type": "Point",
        "coordinates": [
          78.90330199794047,
          -43.20467594832145
        ]
      }
    },
    {
      "type": "Feature",
      "properties": {
        "norad_id": 66715,
        "name": "FLOCK 4H-12",
        "group": "last-30-days",
        "lat": 0.33941617186297224,
        "lon": 71.80948505252888,
        "alt_km": 516.0707590097554,
        "timestamp": "2025-12-26T07:29:17.192566+00:00",
        "meta_object_name": "FLOCK 4H-12",
        "meta_object_id": "2025-276BB",
        "meta_epoch": "2025-12-25T21:59:42.332352",
        "meta_mean_motion": 15.18110375,
        "meta_eccentricity": 0.00021848,
        "meta_inclination": 97.4384,
        "meta_ra_of_asc_node": 71.465,
        "meta_arg_of_pericenter": 174.025,
        "meta_mean_anomaly": 186.1011,
        "meta_ephemeris_type": 0,
        "meta_classification_type": "U",
        "meta_norad_cat_id": 66715,
        "meta_element_set_no": 999,
        "meta_rev_at_epoch": 443,
        "meta_bstar": 0.00031181328,
        "meta_mean_motion_dot": 6.294e-05,
        "meta_mean_motion_ddot": 0,
        "tle_line1": "1 66715U 25276BB  25359.91646218  .00006294  00000+0  31181-3 0  9995",
        "tle_line2": "2 66715  97.4384  71.4650 0002184 174.0250 186.1011 15.18110375  4430"
      },
      "geometry": {
        "type": "Point",
        "coordinates": [
          71.80948505252888,
          0.33941617186297224
        ]
      }
    },
    {
      "type": "Feature",
      "properties": {
        "norad_id": 66716,
        "name": "FLOCK 4H-13",
        "group": "last-30-days",
        "lat": 12.98759680780749,
        "lon": 70.14856099064806,
        "alt_km": 513.2242290067161,
        "timestamp": "2025-12-26T07:29:17.192577+00:00",
        "meta_object_name": "FLOCK 4H-13",
        "meta_object_id": "2025-276BC",
        "meta_epoch": "2025-12-25T22:00:01.999584",
        "meta_mean_motion": 15.18246435,
        "meta_eccentricity": 0.00020344,
        "meta_inclination": 97.442,
        "meta_ra_of_asc_node": 71.4873,
        "meta_arg_of_pericenter": 138.3586,
        "meta_mean_anomaly": 235.6035,
        "meta_ephemeris_type": 0,
        "meta_classification_type": "U",
        "meta_norad_cat_id": 66716,
        "meta_element_set_no": 999,
        "meta_rev_at_epoch": 257,
        "meta_bstar": -0.0013007613,
        "meta_mean_motion_dot": -0.00026584,
        "meta_mean_motion_ddot": 0,
        "tle_line1": "1 66716U 25276BC  25359.91668981 -.00026584  00000+0 -13008-2 0  9990",
        "tle_line2": "2 66716  97.4420  71.4873 0002034 138.3586 235.6035 15.18246435  2574"
      },
      "geometry": {
        "type": "Point",
        "coordinates": [
          70.14856099064806,
          12.98759680780749
        ]
      }
    },
    {
      "type": "Feature",
      "properties": {
        "norad_id": 66717,
        "name": "FLOCK 4H-14",
        "group": "last-30-days",
        "lat": 25.62831106047446,
        "lon": 68.28162502787359,
        "alt_km": 510.2299463138743,
        "timestamp": "2025-12-26T07:29:17.192587+00:00",
        "meta_object_name": "FLOCK 4H-14",
        "meta_object_id": "2025-276BD",
        "meta_epoch": "2025-12-25T21:53:05.088480",
        "meta_mean_motion": 15.18384653,
        "meta_eccentricity": 0.00017553,
        "meta_inclination": 97.4408,
        "meta_ra_of_asc_node": 71.4826,
        "meta_arg_of_pericenter": 130.1728,
        "meta_mean_anomaly": 229.966,
        "meta_ephemeris_type": 0,
        "meta_classification_type": "U",
        "meta_norad_cat_id": 66717,
        "meta_element_set_no": 999,
        "meta_rev_at_epoch": 337,
        "meta_bstar": 0.00030287246,
        "meta_mean_motion_dot": 6.16e-05,
        "meta_mean_motion_ddot": 0,
        "tle_line1": "1 66717U 25276BD  25359.91186445  .00006160  00000+0  30287-3 0  9996",
        "tle_line2": "2 66717  97.4408  71.4826 0001755 130.1728 229.9660 15.18384653  3370"
      },
      "geometry": {
        "type": "Point",
        "coordinates": [
          68.28162502787359,
          25.62831106047446
        ]
      }
    }
  ]
}